{"epoch":1784762836,"count":18316,"objects":[{"id":"31573","name":"GLOBALSTAR M069","type":"PAYLOAD","l1":"1 31573U 07020C   26203.34397047 -.00000053  00000-0  36290-3 0  9990","l2":"2 31573  52.0018 152.6174 0001486 226.2046 297.9391 12.23472540883104"},{"id":"31574","name":"GLOBALSTAR M072","type":"PAYLOAD","l1":"1 31574U 07020D   26203.43989804 -.00000088  00000-0 -55494-4 0  9996","l2":"2 31574  51.9955   6.3933 0001633  48.1342 337.6937 11.91658759879188"},{"id":"32265","name":"GLOBALSTAR M066","type":"PAYLOAD","l1":"1 32265U 07048C   26203.32694402 -.00000025  00000-0  59145-3 0  9995","l2":"2 32265  51.9610 317.0380 0005481 116.3209 278.9500 12.30390412864558"},{"id":"37188","name":"GLOBALSTAR M079","type":"PAYLOAD","l1":"1 37188U 10054A   26203.44294503 -.00000102  00000-0  12382-4 0  9995","l2":"2 37188  52.0059   1.3461 0001114  89.4351 288.9301 12.62266413727002"},{"id":"37189","name":"GLOBALSTAR M074","type":"PAYLOAD","l1":"1 37189U 10054B   26202.43981824 -.00000107  00000-0 -17690-4 0  9996","l2":"2 37189  52.0036   3.6599 0000844 102.6785 274.9845 12.62262026727489"},{"id":"37190","name":"GLOBALSTAR M076","type":"PAYLOAD","l1":"1 37190U 10054C   26202.70274966 -.00000086  00000-0  10185-3 0  9996","l2":"2 37190  52.0052   3.0659 0001086 100.9140 272.0427 12.62262629727232"},{"id":"37191","name":"GLOBALSTAR M077","type":"PAYLOAD","l1":"1 37191U 10054D   26202.70286249 -.00000095  00000-0 -30994-3 0  9995","l2":"2 37191  51.9962  91.6897 0002160 237.1616 155.1753 11.67547132725176"},{"id":"37192","name":"GLOBALSTAR M075","type":"PAYLOAD","l1":"1 37192U 10054E   26203.59140862 -.00000105  00000-0 -47289-5 0  9993","l2":"2 37192  51.9956  42.3944 0000794  75.4054 318.3845 12.62267921726410"},{"id":"37193","name":"GLOBALSTAR M073","type":"PAYLOAD","l1":"1 37193U 10054F   26203.35486741 -.00000098  00000-0  34078-4 0  9998","l2":"2 37193  52.0079 317.2437 0000972 107.8457 288.8242 12.62266989728377"},{"id":"37739","name":"GLOBALSTAR M083","type":"PAYLOAD","l1":"1 37739U 11033A   26203.54897466 -.00000094  00000-0  55992-4 0  9997","l2":"2 37739  51.9860 264.8350 0000772 113.7655  26.5885 12.62258415697419"},{"id":"37740","name":"GLOBALSTAR M088","type":"PAYLOAD","l1":"1 37740U 11033B   26203.36802468 -.00000088  00000-0  85655-4 0  9999","l2":"2 37740  52.0193 171.8951 0000176  32.7818 123.7309 12.62269525692932"},{"id":"37741","name":"GLOBALSTAR M091","type":"PAYLOAD","l1":"1 37741U 11033C   26203.30493051 -.00000092  00000-0  68269-4 0  9995","l2":"2 37741  51.9991 135.0013 0000590  35.6251 134.5383 12.62264340693710"},{"id":"37742","name":"GLOBALSTAR M085","type":"PAYLOAD","l1":"1 37742U 11033D   26203.45030023 -.00000105  00000-0 -44072-5 0  9991","l2":"2 37742  52.0129  85.8820 0000908  54.1938 116.8716 12.62264517694243"},{"id":"37743","name":"GLOBALSTAR M081","type":"PAYLOAD","l1":"1 37743U 11033E   26203.59852970 -.00000097  00000-0  35325-4 0  9999","l2":"2 37743  51.9960  87.8265 0000778  64.8097 300.0557 12.62265457694412"},{"id":"37744","name":"GLOBALSTAR M089","type":"PAYLOAD","l1":"1 37744U 11033F   26203.56517782 -.00000105  00000-0 -83059-5 0  9995","l2":"2 37744  51.9941  42.0794 0000720  98.1921 296.2092 12.62267632695255"},{"id":"38040","name":"GLOBALSTAR M084","type":"PAYLOAD","l1":"1 38040U 11080A   26203.60685241 -.00000095  00000-0  47456-4 0  9995","l2":"2 38040  52.0004 269.4550 0000668 143.6121  19.9561 12.62263698673234"},{"id":"38041","name":"GLOBALSTAR M080","type":"PAYLOAD","l1":"1 38041U 11080B   26203.57459336 -.00000092  00000-0  63059-4 0  9990","l2":"2 38041  52.0054 271.2842 0000301  65.7583  80.7904 12.62257656673352"},{"id":"38042","name":"GLOBALSTAR M082","type":"PAYLOAD","l1":"1 38042U 11080C   26203.25855456 -.00000093  00000-0  60693-4 0  9991","l2":"2 38042  52.0051 227.7492 0000213  49.6438  30.1960 12.62264365674020"},{"id":"38043","name":"GLOBALSTAR M092","type":"PAYLOAD","l1":"1 38043U 11080D   26203.61688808 -.00000089  00000-0  82042-4 0  9994","l2":"2 38043  52.0106 317.0572 0000704 113.0478 275.3534 12.62267988672526"},{"id":"38044","name":"GLOBALSTAR M090","type":"PAYLOAD","l1":"1 38044U 11080E   26203.54262994 -.00000090  00000-0  76388-4 0  9999","l2":"2 38044  52.0096 220.8514 0000388  78.5805  91.6800 12.62269631674174"},{"id":"38045","name":"GLOBALSTAR M086","type":"PAYLOAD","l1":"1 38045U 11080F   26203.48328235 -.00000092  00000-0  64873-4 0  9992","l2":"2 38045  51.9868 220.9029 0001397 121.9821  42.6812 12.62287851674111"},{"id":"39072","name":"GLOBALSTAR M097","type":"PAYLOAD","l1":"1 39072U 13005A   26203.00385111 -.00000106  00000-0 -10578-4 0  9996","l2":"2 39072  52.0037 137.3498 0000571  47.1537 312.9378 12.62271272621302"},{"id":"39073","name":"GLOBALSTAR M093","type":"PAYLOAD","l1":"1 39073U 13005B   26203.53140246 -.00000096  00000-0  42617-4 0  9999","l2":"2 39073  52.0101 129.1050 0000812  54.3817 305.7125 12.62266443621323"},{"id":"39074","name":"GLOBALSTAR M094","type":"PAYLOAD","l1":"1 39074U 13005C   26203.29371225 -.00000106  00000-0 -14110-4 0  9996","l2":"2 39074  51.9970  43.9101 0001046  74.6470 285.4512 12.62264268622908"},{"id":"39075","name":"GLOBALSTAR M096","type":"PAYLOAD","l1":"1 39075U 13005D   26203.38641841 -.00000097  00000-0  35521-4 0  9998","l2":"2 39075  52.0077  92.4577 0000861  54.7039 305.3909 12.62265937621836"},{"id":"39076","name":"GLOBALSTAR M078","type":"PAYLOAD","l1":"1 39076U 13005E   26203.28038619 -.00000090  00000-0  74678-4 0  9990","l2":"2 39076  51.9850 176.7415 0001009 358.0095   2.0767 12.62260123620449"},{"id":"39077","name":"GLOBALSTAR M095","type":"PAYLOAD","l1":"1 39077U 13005F   26203.22786602 -.00000088  00000-0  87785-4 0  9997","l2":"2 39077  52.0057 174.5544 0000621  24.6176 335.4720 12.62264138620290"},{"id":"52888","name":"GLOBALSTAR M087","type":"PAYLOAD","l1":"1 52888U 22064A   26203.55768231 -.00000087  00000-0  91811-4 0  9995","l2":"2 52888  52.0014 314.7702 0000865  94.3921 265.7044 12.62269521195601"}]}